{
    "links": {
        "self": "http://www.neowsapp.com/rest/v1/neo/3760584?api_key=iIulBulltgU6a56xZRHN4H3l9WmuAYTsLGpBGhQ2"
    },
    "id": "3760584",
    "neo_reference_id": "3760584",
    "name": "(2016 TK18)",
    "designation": "2016 TK18",
    "nasa_jpl_url": "http://ssd.jpl.nasa.gov/sbdb.cgi?sstr=3760584",
    "absolute_magnitude_h": 27.4,
    "estimated_diameter": {
        "kilometers": {
            "estimated_diameter_min": 0.0088014652,
            "estimated_diameter_max": 0.0196806745
        },
        "meters": {
            "estimated_diameter_min": 8.801465209,
            "estimated_diameter_max": 19.6806745089
        },
        "miles": {
            "estimated_diameter_min": 0.0054689752,
            "estimated_diameter_max": 0.0122290004
        },
        "feet": {
            "estimated_diameter_min": 28.8761991163,
            "estimated_diameter_max": 64.5691441559
        }
    },
    "is_potentially_hazardous_asteroid": false,
    "close_approach_data": [
        {
            "close_approach_date": "2016-10-11",
            "close_approach_date_full": "2016-Oct-11 13:35",
            "epoch_date_close_approach": 1476192900000,
            "relative_velocity": {
                "kilometers_per_second": "11.1292132293",
                "kilometers_per_hour": "40065.1676254897",
                "miles_per_hour": "24894.9370726272"
            },
            "miss_distance": {
                "astronomical": "0.0141630382",
                "lunar": "5.5094218598",
                "kilometers": "2118760.347448634",
                "miles": "1316536.6312897892"
            },
            "orbiting_body": "Earth"
        }
    ],
    "orbital_data": {
        "orbit_id": "3",
        "orbit_determination_date": "2017-04-06 08:23:12",
        "first_observation_date": "2016-10-06",
        "last_observation_date": "2016-10-09",
        "data_arc_in_days": 3,
        "observations_used": 14,
        "orbit_uncertainty": "8",
        "minimum_orbit_intersection": ".00418678",
        "jupiter_tisserand_invariant": "3.621",
        "epoch_osculation": "2457668.5",
        "eccentricity": ".5514830215510104",
        "semi_major_axis": "2.012129873374281",
        "inclination": "3.679350106578053",
        "ascending_node_longitude": "196.8534305007018",
        "orbital_period": "1042.515306811766",
        "perihelion_distance": ".9024744110527807",
        "perihelion_argument": "226.8153393372759",
        "aphelion_distance": "3.121785335695782",
        "perihelion_time": "2457706.549603932467",
        "mean_anomaly": "346.8607613469206",
        "mean_motion": ".3453186707646114",
        "equinox": "J2000",
        "orbit_class": {
            "orbit_class_type": "APO",
            "orbit_class_description": "Near-Earth asteroid orbits which cross the Earth’s orbit similar to that of 1862 Apollo",
            "orbit_class_range": "a (semi-major axis) > 1.0 AU; q (perihelion) < 1.017 AU"
        }
    },
    "is_sentry_object": false
}